[{"OBJECT_NAME":"UTMN 2 (RS27S)","OBJECT_ID":"2023-091AP","EPOCH":"2026-03-09T23:09:07.917408","MEAN_MOTION":15.29495965,"ECCENTRICITY":0.00097379,"INCLINATION":97.5194,"RA_OF_ASC_NODE":134.949,"ARG_OF_PERICENTER":76.0788,"MEAN_ANOMALY":284.1534,"EPHEMERIS_TYPE":0,"CLASSIFICATION_TYPE":"U","NORAD_CAT_ID":57203,"ELEMENT_SET_NO":999,"REV_AT_EPOCH":14936,"BSTAR":0.00056135701,"MEAN_MOTION_DOT":0.00016013,"MEAN_MOTION_DDOT":0},{"OBJECT_NAME":"STARLINK-31501","OBJECT_ID":"2024-060M","EPOCH":"2026-03-09T13:58:38.462304","MEAN_MOTION":15.27572116,"ECCENTRICITY":0.0001236,"INCLINATION":43.0044,"RA_OF_ASC_NODE":260.7056,"ARG_OF_PERICENTER":272.7212,"MEAN_ANOMALY":87.3498,"EPHEMERIS_TYPE":0,"CLASSIFICATION_TYPE":"U","NORAD_CAT_ID":59359,"ELEMENT_SET_NO":999,"REV_AT_EPOCH":11004,"BSTAR":1.1079e-5,"MEAN_MOTION_DOT":4.3e-7,"MEAN_MOTION_DDOT":0}]
